{"fetched_at":"2026-07-23T17:55:34.243Z","source":"https://celestrak.org/NORAD/elements/gp.php?NAME=HULIANWANG&FORMAT=JSON","constellation":"guowang","records":[{"OBJECT_NAME":"HULIANWANG DIGUI-44","OBJECT_ID":"2025-162E","EPOCH":"2026-07-23T05:15:01.595808","CLASSIFICATION_TYPE":"U","MEAN_MOTION":13.29319039,"ECCENTRICITY":0.00014337,"INCLINATION":50.0009,"RA_OF_ASC_NODE":136.4608,"ARG_OF_PERICENTER":358.9842,"MEAN_ANOMALY":1.1027,"EPHEMERIS_TYPE":0,"NORAD_CAT_ID":65047,"ELEMENT_SET_NO":999,"REV_AT_EPOCH":4816,"BSTAR":0.000073512879,"MEAN_MOTION_DOT":-9e-7,"MEAN_MOTION_DDOT":0},{"OBJECT_NAME":"HULIANWANG DIGUI-45","OBJECT_ID":"2025-162F","EPOCH":"2026-07-23T05:03:06.385248","CLASSIFICATION_TYPE":"U","MEAN_MOTION":13.2932767,"ECCENTRICITY":0.00002662,"INCLINATION":50.0039,"RA_OF_ASC_NODE":136.5029,"ARG_OF_PERICENTER":7.9221,"MEAN_ANOMALY":352.1655,"EPHEMERIS_TYPE":0,"NORAD_CAT_ID":65048,"ELEMENT_SET_NO":999,"REV_AT_EPOCH":4815,"BSTAR":0.0000780009,"MEAN_MOTION_DOT":-8.8e-7,"MEAN_MOTION_DDOT":0},{"OBJECT_NAME":"HULIANWANG DIGUI-46","OBJECT_ID":"2025-162G","EPOCH":"2026-07-23T04:51:06.784704","CLASSIFICATION_TYPE":"U","MEAN_MOTION":13.29327408,"ECCENTRICITY":0.00002259,"INCLINATION":50.0058,"RA_OF_ASC_NODE":136.5107,"ARG_OF_PERICENTER":6.5646,"MEAN_ANOMALY":353.523,"EPHEMERIS_TYPE":0,"NORAD_CAT_ID":65049,"ELEMENT_SET_NO":999,"REV_AT_EPOCH":4815,"BSTAR":0.000069123141,"MEAN_MOTION_DOT":-9.2e-7,"MEAN_MOTION_DDOT":0},{"OBJECT_NAME":"HULIANWANG DIGUI-47","OBJECT_ID":"2025-162H","EPOCH":"2026-07-23T06:27:20.779200","CLASSIFICATION_TYPE":"U","MEAN_MOTION":13.29327,"ECCENTRICITY":0.00002314,"INCLINATION":50.0023,"RA_OF_ASC_NODE":136.0983,"ARG_OF_PERICENTER":356.8063,"MEAN_ANOMALY":3.2808,"EPHEMERIS_TYPE":0,"NORAD_CAT_ID":65050,"ELEMENT_SET_NO":999,"REV_AT_EPOCH":4816,"BSTAR":0.000074388661,"MEAN_MOTION_DOT":-9e-7,"MEAN_MOTION_DDOT":0},{"OBJECT_NAME":"HULIANWANG DIGUI-48","OBJECT_ID":"2025-162J","EPOCH":"2026-07-23T06:15:18.300672","CLASSIFICATION_TYPE":"U","MEAN_MOTION":13.29327714,"ECCENTRICITY":0.0000265,"INCLINATION":50.0033,"RA_OF_ASC_NODE":136.0826,"ARG_OF_PERICENTER":4.5726,"MEAN_ANOMALY":355.5149,"EPHEMERIS_TYPE":0,"NORAD_CAT_ID":65051,"ELEMENT_SET_NO":999,"REV_AT_EPOCH":4816,"BSTAR":0.000087224325,"MEAN_MOTION_DOT":-8.4e-7,"MEAN_MOTION_DDOT":0},{"OBJECT_NAME":"HULIANWANG DIGUI-49","OBJECT_ID":"2025-168A","EPOCH":"2026-07-23T05:56:38.070240","CLASSIFICATION_TYPE":"U","MEAN_MOTION":13.29322449,"ECCENTRICITY":0.00082367,"INCLINATION":50.0007,"RA_OF_ASC_NODE":196.632,"ARG_OF_PERICENTER":215.503,"MEAN_ANOMALY":144.5295,"EPHEMERIS_TYPE":0,"NORAD_CAT_ID":65106,"ELEMENT_SET_NO":999,"REV_AT_EPOCH":4748,"BSTAR":0.00010047179,"MEAN_MOTION_DOT":-7.7e-7,"MEAN_MOTION_DDOT":0},{"OBJECT_NAME":"HULIANWANG DIGUI-50","OBJECT_ID":"2025-168B","EPOCH":"2026-07-23T05:44:31.885152","CLASSIFICATION_TYPE":"U","MEAN_MOTION":13.29322169,"ECCENTRICITY":0.0008814,"INCLINATION":49.9977,"RA_OF_ASC_NODE":196.5002,"ARG_OF_PERICENTER":201.2077,"MEAN_ANOMALY":158.843,"EPHEMERIS_TYPE":0,"NORAD_CAT_ID":65107,"ELEMENT_SET_NO":999,"REV_AT_EPOCH":4748,"BSTAR":0.000095599706,"MEAN_MOTION_DOT":-8e-7,"MEAN_MOTION_DDOT":0},{"OBJECT_NAME":"HULIANWANG DIGUI-51","OBJECT_ID":"2025-168C","EPOCH":"2026-07-23T05:31:58.212768","CLASSIFICATION_TYPE":"U","MEAN_MOTION":13.29325328,"ECCENTRICITY":0.00101261,"INCLINATION":50.0014,"RA_OF_ASC_NODE":196.5626,"ARG_OF_PERICENTER":200.1831,"MEAN_ANOMALY":159.8642,"EPHEMERIS_TYPE":0,"NORAD_CAT_ID":65108,"ELEMENT_SET_NO":999,"REV_AT_EPOCH":4748,"BSTAR":0.000089372206,"MEAN_MOTION_DOT":-8.2e-7,"MEAN_MOTION_DDOT":0},{"OBJECT_NAME":"HULIANWANG DIGUI-52","OBJECT_ID":"2025-168D","EPOCH":"2026-07-23T05:20:19.574592","CLASSIFICATION_TYPE":"U","MEAN_MOTION":13.29323203,"ECCENTRICITY":0.00103745,"INCLINATION":50.0008,"RA_OF_ASC_NODE":196.4964,"ARG_OF_PERICENTER":212.83,"MEAN_ANOMALY":147.1929,"EPHEMERIS_TYPE":0,"NORAD_CAT_ID":65109,"ELEMENT_SET_NO":999,"REV_AT_EPOCH":4748,"BSTAR":0.000090454489,"MEAN_MOTION_DOT":-8.2e-7,"MEAN_MOTION_DDOT":0},{"OBJECT_NAME":"HULIANWANG DIGUI-53","OBJECT_ID":"2025-168E","EPOCH":"2026-07-23T06:56:16.504224","CLASSIFICATION_TYPE":"U","MEAN_MOTION":13.29326619,"ECCENTRICITY":0.00088614,"INCLINATION":50.0016,"RA_OF_ASC_NODE":196.2124,"ARG_OF_PERICENTER":204.0451,"MEAN_ANOMALY":156.0008,"EPHEMERIS_TYPE":0,"NORAD_CAT_ID":65110,"ELEMENT_SET_NO":999,"REV_AT_EPOCH":4749,"BSTAR":0.000094427939,"MEAN_MOTION_DOT":-8e-7,"MEAN_MOTION_DDOT":0},{"OBJECT_NAME":"HULIANWANG DIGUI-54","OBJECT_ID":"2025-168F","EPOCH":"2026-07-23T06:20:27.935808","CLASSIFICATION_TYPE":"U","MEAN_MOTION":13.29326803,"ECCENTRICITY":0.00106696,"INCLINATION":49.9966,"RA_OF_ASC_NODE":195.9407,"ARG_OF_PERICENTER":208.2329,"MEAN_ANOMALY":151.7965,"EPHEMERIS_TYPE":0,"NORAD_CAT_ID":65111,"ELEMENT_SET_NO":999,"REV_AT_EPOCH":4749,"BSTAR":0.00012982018,"MEAN_MOTION_DOT":-6.4e-7,"MEAN_MOTION_DDOT":0},{"OBJECT_NAME":"HULIANWANG DIGUI-55","OBJECT_ID":"2025-168G","EPOCH":"2026-07-23T06:44:24.583776","CLASSIFICATION_TYPE":"U","MEAN_MOTION":13.2932305,"ECCENTRICITY":0.00117436,"INCLINATION":49.9972,"RA_OF_ASC_NODE":196.0407,"ARG_OF_PERICENTER":204.2312,"MEAN_ANOMALY":155.8009,"EPHEMERIS_TYPE":0,"NORAD_CAT_ID":65112,"ELEMENT_SET_NO":999,"REV_AT_EPOCH":4749,"BSTAR":0.00011098037,"MEAN_MOTION_DOT":-7.2e-7,"MEAN_MOTION_DDOT":0},{"OBJECT_NAME":"HULIANWANG DIGUI-56","OBJECT_ID":"2025-168H","EPOCH":"2026-07-23T06:32:29.095008","CLASSIFICATION_TYPE":"U","MEAN_MOTION":13.293225,"ECCENTRICITY":0.001193,"INCLINATION":49.9964,"RA_OF_ASC_NODE":195.9734,"ARG_OF_PERICENTER":224.1713,"MEAN_ANOMALY":135.8207,"EPHEMERIS_TYPE":0,"NORAD_CAT_ID":65113,"ELEMENT_SET_NO":999,"REV_AT_EPOCH":4749,"BSTAR":0.00011408191,"MEAN_MOTION_DOT":-7.1e-7,"MEAN_MOTION_DDOT":0},{"OBJECT_NAME":"HULIANWANG DIGUI-57","OBJECT_ID":"2025-168J","EPOCH":"2026-07-23T06:08:28.904640","CLASSIFICATION_TYPE":"U","MEAN_MOTION":13.29326764,"ECCENTRICITY":0.00095185,"INCLINATION":49.9992,"RA_OF_ASC_NODE":195.9717,"ARG_OF_PERICENTER":216.4765,"MEAN_ANOMALY":143.5459,"EPHEMERIS_TYPE":0,"NORAD_CAT_ID":65114,"ELEMENT_SET_NO":999,"REV_AT_EPOCH":4750,"BSTAR":0.00011668421,"MEAN_MOTION_DOT":-7e-7,"MEAN_MOTION_DDOT":0},{"OBJECT_NAME":"HULIANWANG DIGUI-58","OBJECT_ID":"2025-174A","EPOCH":"2026-07-23T05:27:36.378432","CLASSIFICATION_TYPE":"U","MEAN_MOTION":13.24407838,"ECCENTRICITY":0.00018661,"INCLINATION":86.4939,"RA_OF_ASC_NODE":239.8415,"ARG_OF_PERICENTER":101.1019,"MEAN_ANOMALY":259.0325,"EPHEMERIS_TYPE":0,"NORAD_CAT_ID":65164,"ELEMENT_SET_NO":999,"REV_AT_EPOCH":4556,"BSTAR":0.000029844932,"MEAN_MOTION_DOT":2.7e-7,"MEAN_MOTION_DDOT":0},{"OBJECT_NAME":"HULIANWANG DIGUI-59","OBJECT_ID":"2025-174B","EPOCH":"2026-07-23T05:38:32.342784","CLASSIFICATION_TYPE":"U","MEAN_MOTION":13.24407906,"ECCENTRICITY":0.00019481,"INCLINATION":86.49,"RA_OF_ASC_NODE":239.7159,"ARG_OF_PERICENTER":99.1971,"MEAN_ANOMALY":260.9383,"EPHEMERIS_TYPE":0,"NORAD_CAT_ID":65165,"ELEMENT_SET_NO":999,"REV_AT_EPOCH":4556,"BSTAR":0.000023599511,"MEAN_MOTION_DOT":2.5e-7,"MEAN_MOTION_DDOT":0}]}
