HULIANWANG DIGUI-44     
1 65047U 25162E   26204.21876847 -.00000090  00000+0  73513-4 0  9997
2 65047  50.0009 136.4608 0001433 358.9842   1.1027 13.29319039 48166
HULIANWANG DIGUI-45     
1 65048U 25162F   26204.21049057 -.00000088  00000+0  78001-4 0  9997
2 65048  50.0039 136.5029 0000266   7.9221 352.1655 13.29327670 48158
HULIANWANG DIGUI-46     
1 65049U 25162G   26204.20216186 -.00000092  00000+0  69123-4 0  9996
2 65049  50.0058 136.5107 0000225   6.5646 353.5230 13.29327408 48151
HULIANWANG DIGUI-47     
1 65050U 25162H   26204.26899050 -.00000090  00000+0  74389-4 0  9999
2 65050  50.0023 136.0983 0000231 356.8063   3.2808 13.29327000 48162
HULIANWANG DIGUI-48     
1 65051U 25162J   26204.26062848 -.00000084  00000+0  87224-4 0  9992
2 65051  50.0033 136.0826 0000265   4.5726 355.5149 13.29327714 48163
HULIANWANG DIGUI-49     
1 65106U 25168A   26204.24766285 -.00000077  00000+0  10047-3 0  9993
2 65106  50.0007 196.6320 0008236 215.5030 144.5295 13.29322449 47486
HULIANWANG DIGUI-50     
1 65107U 25168B   26204.23925793 -.00000080  00000+0  95600-4 0  9997
2 65107  49.9977 196.5002 0008814 201.2077 158.8430 13.29322169 47489
HULIANWANG DIGUI-51     
1 65108U 25168C   26204.23053487 -.00000082  00000+0  89372-4 0  9991
2 65108  50.0014 196.5626 0010126 200.1831 159.8642 13.29325328 47488
HULIANWANG DIGUI-52     
1 65109U 25168D   26204.22244878 -.00000082  00000+0  90454-4 0  9990
2 65109  50.0008 196.4964 0010374 212.8300 147.1929 13.29323203 47480
HULIANWANG DIGUI-53     
1 65110U 25168E   26204.28907991 -.00000080  00000+0  94428-4 0  9993
2 65110  50.0016 196.2124 0008861 204.0451 156.0008 13.29326619 47497
HULIANWANG DIGUI-54     
1 65111U 25168F   26204.26421222 -.00000064  00000+0  12982-3 0  9996
2 65111  49.9966 195.9407 0010669 208.2329 151.7965 13.29326803 47497
HULIANWANG DIGUI-55     
1 65112U 25168G   26204.28084009 -.00000072  00000+0  11098-3 0  9993
2 65112  49.9972 196.0407 0011743 204.2312 155.8009 13.29323050 47494
HULIANWANG DIGUI-56     
1 65113U 25168H   26204.27255897 -.00000071  00000+0  11408-3 0  9992
2 65113  49.9964 195.9734 0011930 224.1713 135.8207 13.29322500 47498
HULIANWANG DIGUI-57     
1 65114U 25168J   26204.25589010 -.00000070  00000+0  11668-3 0  9995
2 65114  49.9992 195.9717 0009518 216.4765 143.5459 13.29326764 47504
HULIANWANG DIGUI-58     
1 65164U 25174A   26204.22750438  .00000027  00000+0  29845-4 0  9996
2 65164  86.4939 239.8415 0001866 101.1019 259.0325 13.24407838 45565
HULIANWANG DIGUI-59     
1 65165U 25174B   26204.23509656  .00000025  00000+0  23600-4 0  9993
2 65165  86.4900 239.7159 0001948  99.1971 260.9383 13.24407906 45563
